{
    "links": {
        "self": "http://www.neowsapp.com/rest/v1/neo/3991597?api_key=iIulBulltgU6a56xZRHN4H3l9WmuAYTsLGpBGhQ2"
    },
    "id": "3991597",
    "neo_reference_id": "3991597",
    "name": "(2020 DB)",
    "designation": "2020 DB",
    "nasa_jpl_url": "http://ssd.jpl.nasa.gov/sbdb.cgi?sstr=3991597",
    "absolute_magnitude_h": 26.743,
    "estimated_diameter": {
        "kilometers": {
            "estimated_diameter_min": 0.0119111852,
            "estimated_diameter_max": 0.0266342198
        },
        "meters": {
            "estimated_diameter_min": 11.9111851814,
            "estimated_diameter_max": 26.6342197582
        },
        "miles": {
            "estimated_diameter_min": 0.007401265,
            "estimated_diameter_max": 0.0165497318
        },
        "feet": {
            "estimated_diameter_min": 39.0786927905,
            "estimated_diameter_max": 87.3826135514
        }
    },
    "is_potentially_hazardous_asteroid": false,
    "close_approach_data": [
        {
            "close_approach_date": "2020-02-18",
            "close_approach_date_full": "2020-Feb-18 02:45",
            "epoch_date_close_approach": 1581993900000,
            "relative_velocity": {
                "kilometers_per_second": "21.6343643099",
                "kilometers_per_hour": "77883.7115156465",
                "miles_per_hour": "48393.9095248193"
            },
            "miss_distance": {
                "astronomical": "0.0096661818",
                "lunar": "3.7601447202",
                "kilometers": "1446040.208312766",
                "miles": "898527.7201615308"
            },
            "orbiting_body": "Earth"
        }
    ],
    "orbital_data": {
        "orbit_id": "2",
        "orbit_determination_date": "2020-03-04 05:52:19",
        "first_observation_date": "2020-02-16",
        "last_observation_date": "2020-02-17",
        "data_arc_in_days": 1,
        "observations_used": 32,
        "orbit_uncertainty": "8",
        "minimum_orbit_intersection": ".00845837",
        "jupiter_tisserand_invariant": "4.242",
        "epoch_osculation": "2458896.5",
        "eccentricity": ".6396359901897314",
        "semi_major_axis": "1.511694916515874",
        "inclination": "15.10643711429365",
        "ascending_node_longitude": "326.691783661272",
        "orbital_period": "678.8825658298289",
        "perihelion_distance": ".5447604417254597",
        "perihelion_argument": "280.6465243629261",
        "aphelion_distance": "2.478629391306288",
        "perihelion_time": "2458947.709802202483",
        "mean_anomaly": "332.8443036825385",
        "mean_motion": ".5302831713758266",
        "equinox": "J2000",
        "orbit_class": {
            "orbit_class_type": "APO",
            "orbit_class_description": "Near-Earth asteroid orbits which cross the Earth’s orbit similar to that of 1862 Apollo",
            "orbit_class_range": "a (semi-major axis) > 1.0 AU; q (perihelion) < 1.017 AU"
        }
    },
    "is_sentry_object": false
}